STARLINK-1114
1 14927C 20001P   21326.10659265  .00007783  00000-0  52148-3 0  3269
2 14927  53.0508 188.2625 0001851  77.6847 127.9433 15.06390516    11
